SENTINEL-2A             
1 40697U 15028A   26199.33358472 -.00000029  00000+0  54540-5 0  9998
2 40697  98.5675 273.7415 0001289  95.7172 264.4158 14.30814734578182
SENTINEL-2B             
1 42063U 17013A   26199.32639377 -.00000009  00000+0  13207-4 0  9990
2 42063  98.5683 273.6599 0001197  92.4567 267.6753 14.30815630489095
SENTINEL-2C             
1 60989U 24157A   26199.15158330  .00000045  00000+0  33940-4 0  9995
2 60989  98.5683 273.4938 0001012 105.1968 254.9327 14.30816198 97417
