{"fetched_at":"2026-07-18T17:30:16.246Z","source":"https://celestrak.org/NORAD/elements/gp.php?NAME=SENTINEL&FORMAT=JSON","constellation":"sentinel-2","records":[{"OBJECT_NAME":"SENTINEL-2A","OBJECT_ID":"2015-028A","EPOCH":"2026-07-18T08:00:21.719808","CLASSIFICATION_TYPE":"U","MEAN_MOTION":14.30814734,"ECCENTRICITY":0.00012898,"INCLINATION":98.5675,"RA_OF_ASC_NODE":273.7415,"ARG_OF_PERICENTER":95.7172,"MEAN_ANOMALY":264.4158,"EPHEMERIS_TYPE":0,"NORAD_CAT_ID":40697,"ELEMENT_SET_NO":999,"REV_AT_EPOCH":57818,"BSTAR":0.000005453988,"MEAN_MOTION_DOT":-2.9e-7,"MEAN_MOTION_DDOT":0},{"OBJECT_NAME":"SENTINEL-2B","OBJECT_ID":"2017-013A","EPOCH":"2026-07-18T07:50:00.421728","CLASSIFICATION_TYPE":"U","MEAN_MOTION":14.3081563,"ECCENTRICITY":0.00011978,"INCLINATION":98.5683,"RA_OF_ASC_NODE":273.6599,"ARG_OF_PERICENTER":92.4567,"MEAN_ANOMALY":267.6753,"EPHEMERIS_TYPE":0,"NORAD_CAT_ID":42063,"ELEMENT_SET_NO":999,"REV_AT_EPOCH":48909,"BSTAR":0.000013207399,"MEAN_MOTION_DOT":-9e-8,"MEAN_MOTION_DDOT":0},{"OBJECT_NAME":"SENTINEL-2C","OBJECT_ID":"2024-157A","EPOCH":"2026-07-18T03:38:16.797120","CLASSIFICATION_TYPE":"U","MEAN_MOTION":14.30816198,"ECCENTRICITY":0.00010123,"INCLINATION":98.5683,"RA_OF_ASC_NODE":273.4938,"ARG_OF_PERICENTER":105.1968,"MEAN_ANOMALY":254.9327,"EPHEMERIS_TYPE":0,"NORAD_CAT_ID":60989,"ELEMENT_SET_NO":999,"REV_AT_EPOCH":9741,"BSTAR":0.000033940444,"MEAN_MOTION_DOT":4.5e-7,"MEAN_MOTION_DDOT":0}]}
